CCSDS_OMM_VERS = 2.0
CREATION_DATE  = 
ORIGINATOR     = 

OBJECT_NAME    = STARLINK-36259
OBJECT_ID      = 2025-299E
CENTER_NAME    = EARTH
REF_FRAME      = TEME
TIME_SYSTEM    = UTC
MEAN_ELEMENT_THEORY = SGP/SGP4

EPOCH          = 2026-01-07T12:00:01.999296
MEAN_MOTION    = 15.43217171
ECCENTRICITY   = .0000799
INCLINATION    = 43.0000
RA_OF_ASC_NODE = 161.3494
ARG_OF_PERICENTER = 256.7424
MEAN_ANOMALY   = 320.9196

EPHEMERIS_TYPE = 0
CLASSIFICATION_TYPE = U
NORAD_CAT_ID   = 67106
ELEMENT_SET_NO = 999
REV_AT_EPOCH   = 494
BSTAR          = -.74489E-1
MEAN_MOTION_DOT = -.29873E-1
MEAN_MOTION_DDOT = 0

CCSDS_OMM_VERS = 2.0
CREATION_DATE  = 
ORIGINATOR     = 

OBJECT_NAME    = STARLINK-36196
OBJECT_ID      = 2025-299F
CENTER_NAME    = EARTH
REF_FRAME      = TEME
TIME_SYSTEM    = UTC
MEAN_ELEMENT_THEORY = SGP/SGP4

EPOCH          = 2026-01-07T03:14:15.911232
MEAN_MOTION    = 15.50620221
ECCENTRICITY   = .00016335
INCLINATION    = 43.0001
RA_OF_ASC_NODE = 163.4273
ARG_OF_PERICENTER = 276.9239
MEAN_ANOMALY   = 83.1435

EPHEMERIS_TYPE = 0
CLASSIFICATION_TYPE = U
NORAD_CAT_ID   = 67107
ELEMENT_SET_NO = 999
REV_AT_EPOCH   = 362
BSTAR          = .18202128E-2
MEAN_MOTION_DOT = .108087E-2
MEAN_MOTION_DDOT = 0

CCSDS_OMM_VERS = 2.0
CREATION_DATE  = 
ORIGINATOR     = 

OBJECT_NAME    = STARLINK-36208
OBJECT_ID      = 2025-299G
CENTER_NAME    = EARTH
REF_FRAME      = TEME
TIME_SYSTEM    = UTC
MEAN_ELEMENT_THEORY = SGP/SGP4

EPOCH          = 2026-01-07T10:57:04.149792
MEAN_MOTION    = 15.50609397
ECCENTRICITY   = .0001543
INCLINATION    = 42.9996
RA_OF_ASC_NODE = 161.5377
ARG_OF_PERICENTER = 275.5907
MEAN_ANOMALY   = 84.4777

EPHEMERIS_TYPE = 0
CLASSIFICATION_TYPE = U
NORAD_CAT_ID   = 67108
ELEMENT_SET_NO = 999
REV_AT_EPOCH   = 367
BSTAR          = .10033E-2
MEAN_MOTION_DOT = .59028E-3
MEAN_MOTION_DDOT = 0

CCSDS_OMM_VERS = 2.0
CREATION_DATE  = 
ORIGINATOR     = 

OBJECT_NAME    = STARLINK-35764
OBJECT_ID      = 2025-299H
CENTER_NAME    = EARTH
REF_FRAME      = TEME
TIME_SYSTEM    = UTC
MEAN_ELEMENT_THEORY = SGP/SGP4

EPOCH          = 2026-01-07T12:00:01.999296
MEAN_MOTION    = 15.40692290
ECCENTRICITY   = .0001383
INCLINATION    = 43.0006
RA_OF_ASC_NODE = 161.4653
ARG_OF_PERICENTER = 265.4206
MEAN_ANOMALY   = 264.1458

EPHEMERIS_TYPE = 0
CLASSIFICATION_TYPE = U
NORAD_CAT_ID   = 67109
ELEMENT_SET_NO = 999
REV_AT_EPOCH   = 484
BSTAR          = .45026E-3
MEAN_MOTION_DOT = .18546E-3
MEAN_MOTION_DDOT = 0

CCSDS_OMM_VERS = 2.0
CREATION_DATE  = 
ORIGINATOR     = 

OBJECT_NAME    = STARLINK-35781
OBJECT_ID      = 2025-299J
CENTER_NAME    = EARTH
REF_FRAME      = TEME
TIME_SYSTEM    = UTC
MEAN_ELEMENT_THEORY = SGP/SGP4

EPOCH          = 2026-01-07T09:23:19.023360
MEAN_MOTION    = 15.49882893
ECCENTRICITY   = .0002324
INCLINATION    = 42.9989
RA_OF_ASC_NODE = 161.9098
ARG_OF_PERICENTER = 326.7971
MEAN_ANOMALY   = 33.2743

EPHEMERIS_TYPE = 0
CLASSIFICATION_TYPE = U
NORAD_CAT_ID   = 67110
ELEMENT_SET_NO = 999
REV_AT_EPOCH   = 366
BSTAR          = .30969E-3
MEAN_MOTION_DOT = .17425E-3
MEAN_MOTION_DDOT = 0

CCSDS_OMM_VERS = 2.0
CREATION_DATE  = 
ORIGINATOR     = 

OBJECT_NAME    = STARLINK-35875
OBJECT_ID      = 2025-299K
CENTER_NAME    = EARTH
REF_FRAME      = TEME
TIME_SYSTEM    = UTC
MEAN_ELEMENT_THEORY = SGP/SGP4

EPOCH          = 2026-01-06T19:28:30.211392
MEAN_MOTION    = 15.50593147
ECCENTRICITY   = .00015154
INCLINATION    = 42.9997
RA_OF_ASC_NODE = 165.2998
ARG_OF_PERICENTER = 275.9809
MEAN_ANOMALY   = 84.0878

EPHEMERIS_TYPE = 0
CLASSIFICATION_TYPE = U
NORAD_CAT_ID   = 67111
ELEMENT_SET_NO = 999
REV_AT_EPOCH   = 357
BSTAR          = .14593252E-2
MEAN_MOTION_DOT = .86262E-3
MEAN_MOTION_DDOT = 0

CCSDS_OMM_VERS = 2.0
CREATION_DATE  = 
ORIGINATOR     = 

OBJECT_NAME    = STARLINK-35906
OBJECT_ID      = 2025-299L
CENTER_NAME    = EARTH
REF_FRAME      = TEME
TIME_SYSTEM    = UTC
MEAN_ELEMENT_THEORY = SGP/SGP4

EPOCH          = 2026-01-07T10:55:05.165760
MEAN_MOTION    = 15.50610763
ECCENTRICITY   = .0001713
INCLINATION    = 42.9998
RA_OF_ASC_NODE = 161.5265
ARG_OF_PERICENTER = 266.5069
MEAN_ANOMALY   = 93.5595

EPHEMERIS_TYPE = 0
CLASSIFICATION_TYPE = U
NORAD_CAT_ID   = 67112
ELEMENT_SET_NO = 999
REV_AT_EPOCH   = 367
BSTAR          = .19032E-2
MEAN_MOTION_DOT = .113068E-2
MEAN_MOTION_DDOT = 0

CCSDS_OMM_VERS = 2.0
CREATION_DATE  = 
ORIGINATOR     = 

OBJECT_NAME    = STARLINK-35789
OBJECT_ID      = 2025-299M
CENTER_NAME    = EARTH
REF_FRAME      = TEME
TIME_SYSTEM    = UTC
MEAN_ELEMENT_THEORY = SGP/SGP4

EPOCH          = 2026-01-07T10:54:45.133056
MEAN_MOTION    = 15.50343486
ECCENTRICITY   = .0005424
INCLINATION    = 42.9996
RA_OF_ASC_NODE = 161.5238
ARG_OF_PERICENTER = 222.0761
MEAN_ANOMALY   = 137.9683

EPHEMERIS_TYPE = 0
CLASSIFICATION_TYPE = U
NORAD_CAT_ID   = 67113
ELEMENT_SET_NO = 999
REV_AT_EPOCH   = 367
BSTAR          = .14095E-2
MEAN_MOTION_DOT = .82563E-3
MEAN_MOTION_DDOT = 0

CCSDS_OMM_VERS = 2.0
CREATION_DATE  = 
ORIGINATOR     = 

OBJECT_NAME    = STARLINK-36180
OBJECT_ID      = 2025-299N
CENTER_NAME    = EARTH
REF_FRAME      = TEME
TIME_SYSTEM    = UTC
MEAN_ELEMENT_THEORY = SGP/SGP4

EPOCH          = 2026-01-07T10:54:05.920416
MEAN_MOTION    = 15.50609932
ECCENTRICITY   = .0001749
INCLINATION    = 42.9999
RA_OF_ASC_NODE = 161.5206
ARG_OF_PERICENTER = 268.5162
MEAN_ANOMALY   = 91.5498

EPHEMERIS_TYPE = 0
CLASSIFICATION_TYPE = U
NORAD_CAT_ID   = 67114
ELEMENT_SET_NO = 999
REV_AT_EPOCH   = 367
BSTAR          = .18962E-2
MEAN_MOTION_DOT = .11264E-2
MEAN_MOTION_DDOT = 0

CCSDS_OMM_VERS = 2.0
CREATION_DATE  = 
ORIGINATOR     = 

OBJECT_NAME    = STARLINK-35892
OBJECT_ID      = 2025-299P
CENTER_NAME    = EARTH
REF_FRAME      = TEME
TIME_SYSTEM    = UTC
MEAN_ELEMENT_THEORY = SGP/SGP4

EPOCH          = 2026-01-07T12:00:01.999296
MEAN_MOTION    = 15.40683405
ECCENTRICITY   = .00014
INCLINATION    = 43.0003
RA_OF_ASC_NODE = 161.4029
ARG_OF_PERICENTER = 268.6269
MEAN_ANOMALY   = 285.8395

EPHEMERIS_TYPE = 0
CLASSIFICATION_TYPE = U
NORAD_CAT_ID   = 67115
ELEMENT_SET_NO = 999
REV_AT_EPOCH   = 484
BSTAR          = .5361E-3
MEAN_MOTION_DOT = .22143E-3
MEAN_MOTION_DDOT = 0

CCSDS_OMM_VERS = 2.0
CREATION_DATE  = 
ORIGINATOR     = 

OBJECT_NAME    = STARLINK-35738
OBJECT_ID      = 2025-299Q
CENTER_NAME    = EARTH
REF_FRAME      = TEME
TIME_SYSTEM    = UTC
MEAN_ELEMENT_THEORY = SGP/SGP4

EPOCH          = 2026-01-07T12:00:01.999296
MEAN_MOTION    = 15.41990538
ECCENTRICITY   = .0000896
INCLINATION    = 42.9997
RA_OF_ASC_NODE = 161.3157
ARG_OF_PERICENTER = 272.9813
MEAN_ANOMALY   = 318.0747

EPHEMERIS_TYPE = 0
CLASSIFICATION_TYPE = U
NORAD_CAT_ID   = 67116
ELEMENT_SET_NO = 999
REV_AT_EPOCH   = 484
BSTAR          = -.44382E-1
MEAN_MOTION_DOT = -.1750177E-1
MEAN_MOTION_DDOT = 0

CCSDS_OMM_VERS = 2.0
CREATION_DATE  = 
ORIGINATOR     = 

OBJECT_NAME    = STARLINK-35674
OBJECT_ID      = 2025-299R
CENTER_NAME    = EARTH
REF_FRAME      = TEME
TIME_SYSTEM    = UTC
MEAN_ELEMENT_THEORY = SGP/SGP4

EPOCH          = 2026-01-07T12:00:01.999296
MEAN_MOTION    = 15.40686484
ECCENTRICITY   = .0002009
INCLINATION    = 43.0009
RA_OF_ASC_NODE = 161.5247
ARG_OF_PERICENTER = 271.4775
MEAN_ANOMALY   = 233.2300

EPHEMERIS_TYPE = 0
CLASSIFICATION_TYPE = U
NORAD_CAT_ID   = 67117
ELEMENT_SET_NO = 999
REV_AT_EPOCH   = 474
BSTAR          = .45394E-3
MEAN_MOTION_DOT = .18697E-3
MEAN_MOTION_DDOT = 0

CCSDS_OMM_VERS = 2.0
CREATION_DATE  = 
ORIGINATOR     = 

OBJECT_NAME    = STARLINK-35701
OBJECT_ID      = 2025-299S
CENTER_NAME    = EARTH
REF_FRAME      = TEME
TIME_SYSTEM    = UTC
MEAN_ELEMENT_THEORY = SGP/SGP4

EPOCH          = 2026-01-07T03:08:20.308704
MEAN_MOTION    = 15.50625697
ECCENTRICITY   = .00012994
INCLINATION    = 43.0000
RA_OF_ASC_NODE = 163.3942
ARG_OF_PERICENTER = 287.3779
MEAN_ANOMALY   = 72.6939

EPHEMERIS_TYPE = 0
CLASSIFICATION_TYPE = U
NORAD_CAT_ID   = 67118
ELEMENT_SET_NO = 999
REV_AT_EPOCH   = 362
BSTAR          = .20098848E-2
MEAN_MOTION_DOT = .119585E-2
MEAN_MOTION_DDOT = 0

CCSDS_OMM_VERS = 2.0
CREATION_DATE  = 
ORIGINATOR     = 

OBJECT_NAME    = STARLINK-36179
OBJECT_ID      = 2025-299T
CENTER_NAME    = EARTH
REF_FRAME      = TEME
TIME_SYSTEM    = UTC
MEAN_ELEMENT_THEORY = SGP/SGP4

EPOCH          = 2026-01-07T12:00:01.999296
MEAN_MOTION    = 15.40686679
ECCENTRICITY   = .000161
INCLINATION    = 43.0008
RA_OF_ASC_NODE = 161.4935
ARG_OF_PERICENTER = 266.9163
MEAN_ANOMALY   = 250.2266

EPHEMERIS_TYPE = 0
CLASSIFICATION_TYPE = U
NORAD_CAT_ID   = 67119
ELEMENT_SET_NO = 999
REV_AT_EPOCH   = 494
BSTAR          = .48453E-3
MEAN_MOTION_DOT = .1998E-3
MEAN_MOTION_DDOT = 0

CCSDS_OMM_VERS = 2.0
CREATION_DATE  = 
ORIGINATOR     = 

OBJECT_NAME    = STARLINK-36217
OBJECT_ID      = 2025-299U
CENTER_NAME    = EARTH
REF_FRAME      = TEME
TIME_SYSTEM    = UTC
MEAN_ELEMENT_THEORY = SGP/SGP4

EPOCH          = 2026-01-07T10:51:37.704672
MEAN_MOTION    = 15.50627875
ECCENTRICITY   = .0001704
INCLINATION    = 43.0001
RA_OF_ASC_NODE = 161.5068
ARG_OF_PERICENTER = 258.8812
MEAN_ANOMALY   = 101.1857

EPHEMERIS_TYPE = 0
CLASSIFICATION_TYPE = U
NORAD_CAT_ID   = 67120
ELEMENT_SET_NO = 999
REV_AT_EPOCH   = 367
BSTAR          = .1206E-2
MEAN_MOTION_DOT = .71178E-3
MEAN_MOTION_DDOT = 0

